[{"OBJECT_NAME":"LEO 1 (LEO VANTAGE 1)","OBJECT_ID":"2018-004C","EPOCH":"2026-03-09T16:57:06.140448","MEAN_MOTION":14.67184901,"ECCENTRICITY":0.03529424,"INCLINATION":99.2469,"RA_OF_ASC_NODE":334.0284,"ARG_OF_PERICENTER":24.854,"MEAN_ANOMALY":336.9207,"EPHEMERIS_TYPE":0,"CLASSIFICATION_TYPE":"U","NORAD_CAT_ID":43113,"ELEMENT_SET_NO":999,"REV_AT_EPOCH":42289,"BSTAR":0.000396029,"MEAN_MOTION_DOT":5.709e-5,"MEAN_MOTION_DDOT":0},{"OBJECT_NAME":"METEOR 2-5 DEB","OBJECT_ID":"1979-095E","EPOCH":"2026-03-07T20:57:20.788128","MEAN_MOTION":14.68643052,"ECCENTRICITY":0.00190225,"INCLINATION":81.1521,"RA_OF_ASC_NODE":127.7989,"ARG_OF_PERICENTER":149.756,"MEAN_ANOMALY":210.4745,"EPHEMERIS_TYPE":0,"CLASSIFICATION_TYPE":"U","NORAD_CAT_ID":28594,"ELEMENT_SET_NO":999,"REV_AT_EPOCH":11874,"BSTAR":0.004719649,"MEAN_MOTION_DOT":0.00027618,"MEAN_MOTION_DDOT":0}]
